BEIDOU-2 IGSO-1         
1 36828U 10036A   26064.71564830 -.00000126  00000+0  00000+0 0  9997
2 36828  54.2927 163.8986 0054017 218.9744 143.1840  1.00252203 57065
BEIDOU-2 G4             
1 37210U 10057A   26065.82717685 -.00000114  00000+0  00000+0 0  9994
2 37210   3.3928  69.5393 0008762 211.9137 340.8851  1.00272420 56268
BEIDOU-2 IGSO-2         
1 37256U 10068A   26063.55016868 -.00000178  00000+0  00000+0 0  9999
2 37256  47.7317 273.1244 0047330 213.1251 341.1802  1.00258965 55745
BEIDOU-2 IGSO-3         
1 37384U 11013A   26058.90884667 -.00000154  00000+0  00000+0 0  9999
2 37384  62.2642  41.1818 0035029 190.8154 358.7681  1.00294022 54567
BEIDOU-2 IGSO-4         
1 37763U 11038A   26064.72437745 -.00000100  00000+0  00000+0 0  9996
2 37763  54.5899 166.6081 0154581 230.9953 121.0281  1.00265577 53603
BEIDOU-2 IGSO-5         
1 37948U 11073A   26063.54783174 -.00000153  00000+0  00000+0 0  9997
2 37948  47.8676 272.8369 0108588 221.1171 320.7210  1.00272598 52087
BEIDOU-2 G5             
1 38091U 12008A   26065.87846221  .00000054  00000+0  00000+0 0  9996
2 38091   3.3183  70.3001 0014143 255.5790 213.7869  1.00272389 51349
BEIDOU-2 M3             
1 38250U 12018A   26064.01894681 -.00000067  00000+0  00000+0 0  9997
2 38250  55.8459 308.3876 0021147 279.6506  80.1690  1.86229821 94007
BEIDOU-2 M4             
1 38251U 12018B   26065.02500567 -.00000069  00000+0  00000+0 0  9999
2 38251  55.7456 307.5760 0012630 286.4840  73.4334  1.86229543 94024
BEIDOU-2 M6             
1 38775U 12050B   26063.66128696 -.00000027  00000+0  00000+0 0  9997
2 38775  56.4533  66.3489 0013968 341.8059  18.1670  1.86230964 91362
BEIDOU-2 G6             
1 38953U 12059A   26063.10227411 -.00000185  00000+0  00000+0 0  9993
2 38953   4.1554  74.6500 0010671 304.2337 263.7683  1.00269514 48856
BEIDOU-3S IGSO-1S       
1 40549U 15019A   26065.60071583 -.00000164  00000+0  00000+0 0  9997
2 40549  49.3862 296.6971 0035764 190.6092 349.7460  1.00273571 40045
BEIDOU-3S M2S           
1 40748U 15037A   26064.15514271 -.00000065  00000+0  00000+0 0  9993
2 40748  54.9621 305.6294 0008821 278.3568  81.6004  1.86231809 72184
BEIDOU-3S M1S           
1 40749U 15037B   26061.69084880 -.00000053  00000+0  00000+0 0  9995
2 40749  54.9610 305.7025 0004647  29.9008 330.1863  1.86253746 72142
BEIDOU-2 IGSO-6         
1 41434U 16021A   26065.38665594 -.00000150  00000+0  00000+0 0  9996
2 41434  60.0894  39.0582 0059788 233.3814 126.6015  1.00278312 36456
BEIDOU-2 G7             
1 41586U 16037A   26065.81738347 -.00000355  00000+0  00000+0 0  9993
2 41586   1.4675  68.2443 0007914 342.8303 158.1757  1.00266463  5861
BEIDOU-3 M1             
1 43001U 17069A   26063.96368704 -.00000029  00000+0  00000+0 0  9991
2 43001  56.6017  66.5157 0012381 309.6653  50.2473  1.86231070 56664
